[
  {"postalCode":"2840","postalCodeExt":"001","freguesia":"Seixal","council":"Seixal","district":"Setúbal"},
  {"postalCode":"2840","postalCodeExt":"002","freguesia":"Arrentela","council":"Seixal","district":"Setúbal"},
  {"postalCode":"2840","postalCodeExt":"003","freguesia":"Aldeia de Paio Pires","council":"Seixal","district":"Setúbal"},
  {"postalCode":"2840","postalCodeExt":"004","freguesia":"Corroios","council":"Seixal","district":"Setúbal"},
  {"postalCode":"1000","postalCodeExt":"001","freguesia":"Areeiro","council":"Lisboa","district":"Lisboa"},
  {"postalCode":"1000","postalCodeExt":"002","freguesia":"Campo Grande","council":"Lisboa","district":"Lisboa"},
  {"postalCode":"1000","postalCodeExt":"003","freguesia":"Campolide","council":"Lisboa","district":"Lisboa"},
  {"postalCode":"4000","postalCodeExt":"001","freguesia":"Cedofeita","council":"Porto","district":"Porto"},
  {"postalCode":"4000","postalCodeExt":"002","freguesia":"Massarelos","council":"Porto","district":"Porto"}
]

